{
  "norad_id": 39188,
  "name": "O3B FM5",
  "history": [
    {
      "epoch": "2026-03-28T02:01:35.391360",
      "apogee_km": 8070.565228265264,
      "perigee_km": 8061.179510976882,
      "latitude_deg": 0.0689080350892186,
      "longitude_deg": -93.09400959988125,
      "semi_major_axis_km": 14444.009369621072,
      "eccentricity": 0.0003249,
      "inclination_deg": 0.1013,
      "raan_deg": 7.8394,
      "arg_perigee_deg": 349.0661,
      "mean_anomaly_deg": 3.0879,
      "mean_motion_rev_day": 5.00116427
    }
  ]
}